[
    {
        "CCSDS_OMM_VERS": "3.0",
        "COMMENT": "GENERATED VIA SPACE-TRACK.ORG API",
        "CREATION_DATE": "2025-05-02T17:35:09",
        "ORIGINATOR": "18 SPCS",
        "OBJECT_NAME": "GALILEO 32 (137)",
        "OBJECT_ID": "2024-167A",
        "CENTER_NAME": "EARTH",
        "REF_FRAME": "TEME",
        "TIME_SYSTEM": "UTC",
        "MEAN_ELEMENT_THEORY": "SGP4",
        "EPOCH": "2025-05-02T00:14:43.319904",
        "MEAN_MOTION": "1.70474220",
        "ECCENTRICITY": "0.00037410",
        "INCLINATION": "55.3198",
        "RA_OF_ASC_NODE": "232.5938",
        "ARG_OF_PERICENTER": "205.9725",
        "MEAN_ANOMALY": "112.5853",
        "EPHEMERIS_TYPE": "0",
        "CLASSIFICATION_TYPE": "U",
        "NORAD_CAT_ID": "61182",
        "ELEMENT_SET_NO": "999",
        "REV_AT_EPOCH": "386",
        "BSTAR": "0.00000000000000",
        "MEAN_MOTION_DOT": "-0.00000018",
        "MEAN_MOTION_DDOT": "0.0000000000000",
        "SEMIMAJOR_AXIS": "29600.295",
        "PERIOD": "844.703",
        "APOAPSIS": "23233.233",
        "PERIAPSIS": "23211.086",
        "OBJECT_TYPE": "PAYLOAD",
        "RCS_SIZE": "LARGE",
        "COUNTRY_CODE": "ESA",
        "LAUNCH_DATE": "2024-09-17",
        "SITE": "AFETR",
        "DECAY_DATE": null,
        "FILE": "4716995",
        "GP_ID": "286690686",
        "TLE_LINE0": "0 GALILEO 32 (137)",
        "TLE_LINE1": "1 61182U 24167A   25122.01022361 -.00000018  00000-0  00000-0 0  9995",
        "TLE_LINE2": "2 61182  55.3198 232.5938 0003741 205.9725 112.5853  1.70474220  3867"
    }
]